satname,norad_id,inclination_deg,eccentricity,mean_motion_rev_per_day,perigee_km,apogee_km,l1,l2
STARLINK-1364,45589,53.054,0.0001233,15.06400808,546.3551863639041,548.0629767076116,1 45589U 20025BL  25343.65652647  .00001710  00000+0  13364-3 0  9996,2 45589  53.0540 120.7954 0001233  83.6015 276.5114 15.06400808311935
STARLINK-1365,45590,53.0542,9.39e-05,15.06416375,546.5110858592561,547.8116568934001,1 45590U 20025BM  25343.73852576  .00003948  00000+0  28362-3 0  9999,2 45590  53.0542 150.4223 0000939  86.9511 273.1585 15.06416375311545
STARLINK-1443,45660,53.054,0.000125,15.06413099,546.3057481293299,548.0370752322506,1 45660U 20035D   25343.52475274  .00001280  00000+0  10474-3 0  9993,2 45660  53.0540 111.3865 0001250  86.3061 273.8071 15.06413099305146
STARLINK-1446,45663,53.0264,0.0001536,15.3707291,453.7207686380416,455.8198377615836,1 45663U 20035G   25343.50963061  .00038712  00000+0  10567-2 0  9992,2 45663  53.0264  66.2713 0001536 358.4577   1.6420 15.37072910305775
STARLINK-1448,45665,53.0546,0.0001318,15.0640745,546.2759669248408,548.1014827859117,1 45665U 20035J   25343.79381897  .00000893  00000+0  78825-4 0  9998,2 45665  53.0546 110.1736 0001318  86.9072 273.2068 15.06407450305171
STARLINK-1451,45668,53.0549,0.0001334,15.0639349,546.307666063256,548.1553543817827,1 45668U 20035M   25343.06774042 -.00000458  00000+0 -11890-4 0  9997,2 45668  53.0549 113.7541 0001334  90.6637 269.4504 15.06393490305076
STARLINK-1452,45669,53.037,0.0007227,15.31187532,467.31727398039857,477.21884945660713,1 45669U 20035N   25343.65685466  .00095105  00000+0  30843-2 0  9992,2 45669  53.0370  85.8911 0007227 141.0446 219.1075 15.31187532305515
STARLINK-1453,45670,53.0539,0.0001025,15.15063862,520.0775478061432,521.4918267520352,1 45670U 20035P   25343.91670139  .01981920  00000+0  95816-1 0  9994,2 45670  53.0539  78.7283 0001025  64.1177 273.5585 15.15063862  5825
STARLINK-1454,45671,53.0549,0.0001274,15.06395241,546.343852361756,548.1084348907525,1 45671U 20035Q   25343.75329676  .00005597  00000+0  39440-3 0  9993,2 45671  53.0549 110.3614 0001274  76.8752 283.2379 15.06395241305161
STARLINK-1456,45673,53.0548,0.0001306,15.06410133,546.2760554610313,548.0849483925358,1 45673U 20035S   25343.76801881  .00002175  00000+0  16483-3 0  9990,2 45673  53.0548 110.2930 0001306  83.9449 276.1688 15.06410133305184
STARLINK-1457,45674,53.0525,0.000382,15.46931185,423.11050192844596,428.30864070893404,1 45674U 20035T   25343.80281400  .00131067  00000+0  25254-2 0  9993,2 45674  53.0525 101.9727 0003820 320.7375  39.3354 15.46931185305272
STARLINK-1458,45675,53.0554,0.000115,15.06408416,546.3893521126047,547.9821763483787,1 45675U 20035U   25343.76433318  .00000993  00000+0  85534-4 0  9998,2 45675  53.0554 110.3081 0001150  97.9632 262.1487 15.06408416305146
STARLINK-1460,45676,53.0553,0.0001303,15.06398872,546.3126417304056,548.11738846554,1 45676U 20035V   25343.73485256  .00002597  00000+0  19316-3 0  9990,2 45676  53.0553 110.4408 0001303  91.3279 268.7859 15.06398872305133
STARLINK-1392,45677,53.0549,0.0001182,15.06398161,546.3986173483909,548.0357710799026,1 45677U 20035W   25343.74590904  .00002894  00000+0  21313-3 0  9999,2 45677  53.0549 110.3939 0001182  89.6161 270.4964 15.06398161305174
STARLINK-1394,45679,53.0563,0.0001478,15.06416178,546.1384159535555,548.1855343306079,1 45679U 20035Y   25343.47775968  .00006298  00000+0  44113-3 0  9991,2 45679  53.0563 101.5940 0001478  90.0032 270.1126 15.06416178305274
STARLINK-1402,45685,53.0537,0.0003202,15.31119706,470.27680327787857,474.6639322361898,1 45685U 20035AE  25343.82546877  .00096277  00000+0  31300-2 0  9991,2 45685  53.0537  86.5951 0003202 277.9348  82.1288 15.31119706305522
STARLINK-1404,45686,53.0552,0.0001183,15.0640248,546.3846892706651,548.0232249411174,1 45686U 20035AF  25343.76894674 -.00000377  00000+0 -63918-5 0  9997,2 45686  53.0552 100.2886 0001183  83.1820 276.9304 15.06402480305325
STARLINK-1413,45689,53.0544,0.0001382,15.06398189,546.2600244602263,548.1741923357877,1 45689U 20035AJ  25343.52199338  .00001875  00000+0  14477-3 0  9995,2 45689  53.0544 101.3946 0001382  92.9956 267.1191 15.06398189305198
STARLINK-1417,45693,53.0531,7.52e-05,15.07439281,543.5075946951165,544.5486883324002,1 45693U 20035AN  25343.71033201  .00041988  00000+0  27429-2 0  9996,2 45693  53.0531 100.4790 0000752 358.6869   1.4118 15.07439281305302
STARLINK-1420,45695,53.0541,0.0001331,15.06422353,546.2212952851751,548.064804834501,1 45695U 20035AQ  25343.78458036  .00008505  00000+0  58882-3 0  9998,2 45695  53.0541  80.2079 0001331  91.4239 268.6902 15.06422353305609
STARLINK-1422,45696,53.0563,0.000111,15.06400188,546.442268119441,547.9796953713885,1 45696U 20035AR  25343.59570795  .00005449  00000+0  38440-3 0  9997,2 45696  53.0563 101.0675 0001110  95.5796 264.5320 15.06400188305281
STARLINK-1351,45697,53.0565,0.0001188,15.0640936,546.3601430342242,548.0055990355822,1 45697U 20035AS  25343.70443917  .00000352  00000+0  42518-4 0  9996,2 45697  53.0565  80.5781 0001188  97.9063 262.2061 15.06409360305593
STARLINK-1398,45699,53.0481,0.0001665,15.58001354,392.31460472532854,394.5695405565166,1 45699U 20035AU  25343.85135772  .00158844  00000+0  20470-2 0  9992,2 45699  53.0481  26.0130 0001665 331.6614  28.4307 15.58001354306375
STARLINK-1400,45700,53.0557,0.0001363,15.06414642,546.2227637886463,548.1106015725454,1 45700U 20035AV  25343.81132184  .00003036  00000+0  22253-3 0  9999,2 45700  53.0557  80.0965 0001363  91.1578 268.9567 15.06414642305605
STARLINK-1403,45701,53.0561,0.0001205,15.06432228,546.2782929217547,547.9472781200648,1 45701U 20035AW  25343.64176881 -.00001327  00000+0 -70158-4 0  9994,2 45701  53.0561  80.8601 0001205  96.8321 263.2805 15.06432228305578
STARLINK-1407,45703,53.0413,0.0008098,15.45248452,425.1343887212761,436.1618971387652,1 45703U 20035AY  25343.53088160  .00088431  00000+0  18165-2 0  9993,2 45703  53.0413  29.6645 0008098 177.9025 182.2016 15.45248452306295
STARLINK-1411,45706,53.0519,0.0003348,15.46081842,425.9223852514233,430.4799092748308,1 45706U 20035BB  25343.47779675  .00070344  00000+0  14107-2 0  9993,2 45706  53.0519  57.1311 0003348   8.6341 351.4722 15.46081842305893
STARLINK-1423,45710,53.0537,0.0001194,15.06385954,546.4277154818801,548.0814989976889,1 45710U 20035BF  25343.66758505 -.00000407  00000+0 -84593-5 0  9992,2 45710  53.0537  80.7440 0001194  85.6721 274.4404 15.06385954305581
STARLINK-1433,45711,53.0543,0.0001406,15.06399432,546.2395945250082,548.1870030290238,1 45711U 20035BG  25343.84821356  .00015285  00000+0  10429-2 0  9990,2 45711  53.0543  79.9325 0001406  82.1405 277.9743 15.06399432305601
STARLINK-1434,45712,53.0512,0.0002702,15.18293926,509.13512224490205,512.8580100240415,1 45712U 20035BH  25343.67400418  .00057343  00000+0  27558-2 0  9996,2 45712  53.0512  74.0189 0002702 190.9359 169.1577 15.18293926305687
STARLINK-1465,45731,53.0539,0.000114,15.06395299,546.4364744855702,548.0154572417869,1 45731U 20038B   25343.81502904  .00004988  00000+0  35353-3 0  9999,2 45731  53.0539 280.0805 0001140  84.7407 275.3712 15.06395299302647
STARLINK-1471,45735,53.0494,0.0001638,15.42992079,436.16798166097396,438.4007136944738,1 45735U 20038F   25343.63803108  .00026132  00000+0  59120-3 0  9996,2 45735  53.0494 211.3243 0001638 104.3301 255.7885 15.42992079303607
STARLINK-1474,45738,53.0343,0.0002104,15.75094753,342.9471505602478,345.77597795608835,1 45738U 20038J   25343.78379045  .00128540  00000+0  83508-3 0  9996,2 45738  53.0343 159.6714 0002104 123.9703 236.1515 15.75094753304334
STARLINK-1475,45739,53.0356,0.0005724,16.13743692,232.806947198359,240.37949035281326,1 45739U 20038K   25343.77811919  .01203301  99414-3  97790-3 0  9996,2 45739  53.0356 120.2536 0005724 326.8718  33.1958 16.13743692304899
STARLINK-1480,45741,53.0536,0.0001245,15.06400177,546.3488096308984,548.0732212867479,1 45741U 20038M   25343.53121182  .00004993  00000+0  35381-3 0  9991,2 45741  53.0536 281.3538 0001245  90.3634 269.7498 15.06400177302610
STARLINK-1500,45744,53.0379,0.0002014,15.29746249,475.18968495729496,477.95076102671555,1 45744U 20038Q   25343.46598303  .00029214  00000+0  10085-2 0  9995,2 45744  53.0379 254.3035 0002014  42.6607 317.4548 15.29746249302980
STARLINK-1504,45746,53.026,0.0003008,15.44094108,431.99205456700474,436.09026094671026,1 45746U 20038S   25343.64816035  .00067316  00000+0  14455-2 0  9992,2 45746  53.0260 214.2157 0003008  79.7393 280.3952 15.44094108303556
STARLINK-1506,45747,53.0671,0.0002607,15.23004867,494.9906819128428,498.5752651870507,1 45747U 20038T   25343.78626373  .00033887  00000+0  14298-2 0  9993,2 45747  53.0671 257.2301 0002607  22.3705 337.7405 15.23004867302971
STARLINK-1464,45751,53.0546,0.0001242,15.06389501,546.3836037606179,548.1038683354518,1 45751U 20038X   25343.73210402  .00015518  00000+0  10586-2 0  9992,2 45751  53.0546 260.4553 0001242  86.9312 273.1819 15.06389501302925
STARLINK-1477,45754,53.0522,0.0006201,15.08855075,535.4075620472759,543.9870601599059,1 45754U 20038AA  25343.51099618  .00024184  00000+0  15311-2 0  9995,2 45754  53.0522 261.0561 0006201  88.5454 271.6246 15.08855075302892
STARLINK-1478,45755,53.0528,0.0001333,15.0640796,546.264016081388,548.1103075029214,1 45755U 20038AB  25343.76527433  .00020937  00000+0  14200-2 0  9992,2 45755  53.0528 260.3029 0001333  92.2974 267.8167 15.06407960302916
STARLINK-1484,45756,53.0124,0.0001054,15.6922977,360.39101958817537,361.81165102925934,1 45756U 20038AC  25343.91670139  .00119945  00000+0  10001-2 0  9995,2 45756  53.0124 148.6244 0001054 147.9048 191.2140 15.69229770  5984
STARLINK-1493,45759,53.0528,0.0001203,15.06394369,546.3956946883372,548.0619377037137,1 45759U 20038AF  25343.75421507  .00002322  00000+0  17472-3 0  9993,2 45759  53.0528 260.3513 0001203  81.1890 278.9235 15.06394369302915
